TEN-KOH 2               
1 68261U 25241B   26095.98773268  .00009738  00000+0  42257-3 0  9998
2 68261  51.6400 303.0777 0004688 258.5026 101.5425 15.22943294  3903
STARLINK-37162          
1 68262U 26055A   26096.25002315  .00114763  00000+0  57848-3 0  9999
2 68262  53.1586 199.1759 0001009 127.5420 121.8203 15.80827972  4062
STARLINK-37156          
1 68263U 26055B   26096.25002315  .00105972  00000+0  53474-3 0  9993
2 68263  53.1586 199.1668 0001488 122.4678 131.1658 15.80837506  4064
STARLINK-37163          
1 68264U 26055C   26096.25002315  .00097115  00000+0  49091-3 0  9993
2 68264  53.1586 199.1484 0000725 124.6699 137.5091 15.80834770  4062
STARLINK-37133          
1 68265U 26055D   26096.25002315  .00117782  00000+0  59362-3 0  9999
2 68265  53.1586 199.1580 0001117 112.0508 145.8629 15.80819798  4068
STARLINK-37042          
1 68266U 26055E   26096.25002315  .00067004  00000+0  34091-3 0  9993
2 68266  53.1584 199.1399 0001593 112.1749 154.2766 15.80838833  4068
STARLINK-37103          
1 68267U 26055F   26096.25002315  .00113296  00000+0  57123-3 0  9990
2 68267  53.1583 199.1313 0001233  91.7621 178.9598 15.80827876  4067
STARLINK-36999          
1 68268U 26055G   26096.25002315  .00097360  00000+0  49216-3 0  9998
2 68268  53.1583 199.1226 0001301 117.9587 157.0391 15.80833256  4067
STARLINK-36962          
1 68269U 26055H   26096.25002315  .00125406  00000+0  63131-3 0  9994
2 68269  53.1583 199.1138 0001107 108.7001 170.5727 15.80817969  4069
STARLINK-37028          
1 68270U 26055J   26096.25002315  .00196203  00000+0  97804-3 0  9993
2 68270  53.1582 199.0958 0000358 124.9474 162.8149 15.80808695  4068
STARLINK-37029          
1 68271U 26055K   26096.25002315  .00045604  00000+0  23356-3 0  9993
2 68271  53.1584 199.1046 0001379  73.0213 210.5141 15.80855017  4062
STARLINK-36974          
1 68272U 26055L   26096.25002315  .00074605  00000+0  37875-3 0  9998
2 68272  53.1582 199.0868 0001612  84.8130 207.2580 15.80844404  4068
STARLINK-37019          
1 68273U 26055M   26096.25002315  .00095892  00000+0  48480-3 0  9994
2 68273  53.1583 199.0770 0001470 103.2995 193.0558 15.80836612  4068
STARLINK-37129          
1 68274U 26055N   26096.25002315  .00122771  00000+0  61814-3 0  9998
2 68274  53.1582 199.0686 0001387  72.4541 228.1724 15.80824012  4061
STARLINK-37123          
1 68275U 26055P   26096.25002315  .00185299  00000+0  92605-3 0  9995
2 68275  53.1581 199.0599 0001633 104.1644 200.7468 15.80785456  4064
STARLINK-37125          
1 68276U 26055Q   26096.25002315  .00096326  00000+0  48690-3 0  9993
2 68276  53.1581 199.0509 0001197 117.3780 191.7867 15.80839092  4066
