[{"OBJECT_NAME":"TEN-KOH 2","OBJECT_ID":"2025-241B","EPOCH":"2026-04-05T23:42:20.103552","MEAN_MOTION":15.22943294,"ECCENTRICITY":0.00046885,"INCLINATION":51.64,"RA_OF_ASC_NODE":303.0777,"ARG_OF_PERICENTER":258.5026,"MEAN_ANOMALY":101.5425,"EPHEMERIS_TYPE":0,"CLASSIFICATION_TYPE":"U","NORAD_CAT_ID":68261,"ELEMENT_SET_NO":999,"REV_AT_EPOCH":390,"BSTAR":0.00042256709,"MEAN_MOTION_DOT":9.738e-5,"MEAN_MOTION_DDOT":0},{"OBJECT_NAME":"STARLINK-37162","OBJECT_ID":"2026-055A","EPOCH":"2026-04-06T06:00:02.000160","MEAN_MOTION":15.80827972,"ECCENTRICITY":0.00010093,"INCLINATION":53.1586,"RA_OF_ASC_NODE":199.1759,"ARG_OF_PERICENTER":127.542,"MEAN_ANOMALY":121.8203,"EPHEMERIS_TYPE":0,"CLASSIFICATION_TYPE":"U","NORAD_CAT_ID":68262,"ELEMENT_SET_NO":999,"REV_AT_EPOCH":406,"BSTAR":0.0005784794,"MEAN_MOTION_DOT":0.00114763,"MEAN_MOTION_DDOT":0},{"OBJECT_NAME":"STARLINK-37156","OBJECT_ID":"2026-055B","EPOCH":"2026-04-06T06:00:02.000160","MEAN_MOTION":15.80837506,"ECCENTRICITY":0.00014887,"INCLINATION":53.1586,"RA_OF_ASC_NODE":199.1668,"ARG_OF_PERICENTER":122.4678,"MEAN_ANOMALY":131.1658,"EPHEMERIS_TYPE":0,"CLASSIFICATION_TYPE":"U","NORAD_CAT_ID":68263,"ELEMENT_SET_NO":999,"REV_AT_EPOCH":406,"BSTAR":0.00053473954,"MEAN_MOTION_DOT":0.00105972,"MEAN_MOTION_DDOT":0},{"OBJECT_NAME":"STARLINK-37163","OBJECT_ID":"2026-055C","EPOCH":"2026-04-06T06:00:02.000160","MEAN_MOTION":15.8083477,"ECCENTRICITY":7.253e-5,"INCLINATION":53.1586,"RA_OF_ASC_NODE":199.1484,"ARG_OF_PERICENTER":124.6699,"MEAN_ANOMALY":137.5091,"EPHEMERIS_TYPE":0,"CLASSIFICATION_TYPE":"U","NORAD_CAT_ID":68264,"ELEMENT_SET_NO":999,"REV_AT_EPOCH":406,"BSTAR":0.00049091487,"MEAN_MOTION_DOT":0.00097115,"MEAN_MOTION_DDOT":0},{"OBJECT_NAME":"STARLINK-37133","OBJECT_ID":"2026-055D","EPOCH":"2026-04-06T06:00:02.000160","MEAN_MOTION":15.80819798,"ECCENTRICITY":0.00011176,"INCLINATION":53.1586,"RA_OF_ASC_NODE":199.158,"ARG_OF_PERICENTER":112.0508,"MEAN_ANOMALY":145.8629,"EPHEMERIS_TYPE":0,"CLASSIFICATION_TYPE":"U","NORAD_CAT_ID":68265,"ELEMENT_SET_NO":999,"REV_AT_EPOCH":406,"BSTAR":0.00059362191,"MEAN_MOTION_DOT":0.00117782,"MEAN_MOTION_DDOT":0},{"OBJECT_NAME":"STARLINK-37042","OBJECT_ID":"2026-055E","EPOCH":"2026-04-06T06:00:02.000160","MEAN_MOTION":15.80838833,"ECCENTRICITY":0.00015933,"INCLINATION":53.1584,"RA_OF_ASC_NODE":199.1399,"ARG_OF_PERICENTER":112.1749,"MEAN_ANOMALY":154.2766,"EPHEMERIS_TYPE":0,"CLASSIFICATION_TYPE":"U","NORAD_CAT_ID":68266,"ELEMENT_SET_NO":999,"REV_AT_EPOCH":406,"BSTAR":0.00034090974,"MEAN_MOTION_DOT":0.00067004,"MEAN_MOTION_DDOT":0},{"OBJECT_NAME":"STARLINK-37103","OBJECT_ID":"2026-055F","EPOCH":"2026-04-06T06:00:02.000160","MEAN_MOTION":15.80827876,"ECCENTRICITY":0.0001233,"INCLINATION":53.1583,"RA_OF_ASC_NODE":199.1313,"ARG_OF_PERICENTER":91.7621,"MEAN_ANOMALY":178.9598,"EPHEMERIS_TYPE":0,"CLASSIFICATION_TYPE":"U","NORAD_CAT_ID":68267,"ELEMENT_SET_NO":999,"REV_AT_EPOCH":406,"BSTAR":0.00057123064,"MEAN_MOTION_DOT":0.00113296,"MEAN_MOTION_DDOT":0},{"OBJECT_NAME":"STARLINK-36999","OBJECT_ID":"2026-055G","EPOCH":"2026-04-06T06:00:02.000160","MEAN_MOTION":15.80833256,"ECCENTRICITY":0.00013016,"INCLINATION":53.1583,"RA_OF_ASC_NODE":199.1226,"ARG_OF_PERICENTER":117.9587,"MEAN_ANOMALY":157.0391,"EPHEMERIS_TYPE":0,"CLASSIFICATION_TYPE":"U","NORAD_CAT_ID":68268,"ELEMENT_SET_NO":999,"REV_AT_EPOCH":406,"BSTAR":0.00049215972,"MEAN_MOTION_DOT":0.0009736,"MEAN_MOTION_DDOT":0},{"OBJECT_NAME":"STARLINK-36962","OBJECT_ID":"2026-055H","EPOCH":"2026-04-06T06:00:02.000160","MEAN_MOTION":15.80817969,"ECCENTRICITY":0.0001107,"INCLINATION":53.1583,"RA_OF_ASC_NODE":199.1138,"ARG_OF_PERICENTER":108.7001,"MEAN_ANOMALY":170.5727,"EPHEMERIS_TYPE":0,"CLASSIFICATION_TYPE":"U","NORAD_CAT_ID":68269,"ELEMENT_SET_NO":999,"REV_AT_EPOCH":406,"BSTAR":0.00063131252,"MEAN_MOTION_DOT":0.00125406,"MEAN_MOTION_DDOT":0},{"OBJECT_NAME":"STARLINK-37028","OBJECT_ID":"2026-055J","EPOCH":"2026-04-06T06:00:02.000160","MEAN_MOTION":15.80808695,"ECCENTRICITY":3.584e-5,"INCLINATION":53.1582,"RA_OF_ASC_NODE":199.0958,"ARG_OF_PERICENTER":124.9474,"MEAN_ANOMALY":162.8149,"EPHEMERIS_TYPE":0,"CLASSIFICATION_TYPE":"U","NORAD_CAT_ID":68270,"ELEMENT_SET_NO":999,"REV_AT_EPOCH":406,"BSTAR":0.00097803841,"MEAN_MOTION_DOT":0.00196203,"MEAN_MOTION_DDOT":0},{"OBJECT_NAME":"STARLINK-37029","OBJECT_ID":"2026-055K","EPOCH":"2026-04-06T06:00:02.000160","MEAN_MOTION":15.80855017,"ECCENTRICITY":0.0001379,"INCLINATION":53.1584,"RA_OF_ASC_NODE":199.1046,"ARG_OF_PERICENTER":73.0213,"MEAN_ANOMALY":210.5141,"EPHEMERIS_TYPE":0,"CLASSIFICATION_TYPE":"U","NORAD_CAT_ID":68271,"ELEMENT_SET_NO":999,"REV_AT_EPOCH":406,"BSTAR":0.00023356173,"MEAN_MOTION_DOT":0.00045604,"MEAN_MOTION_DDOT":0},{"OBJECT_NAME":"STARLINK-36974","OBJECT_ID":"2026-055L","EPOCH":"2026-04-06T06:00:02.000160","MEAN_MOTION":15.80844404,"ECCENTRICITY":0.0001612,"INCLINATION":53.1582,"RA_OF_ASC_NODE":199.0868,"ARG_OF_PERICENTER":84.813,"MEAN_ANOMALY":207.258,"EPHEMERIS_TYPE":0,"CLASSIFICATION_TYPE":"U","NORAD_CAT_ID":68272,"ELEMENT_SET_NO":999,"REV_AT_EPOCH":406,"BSTAR":0.00037875294,"MEAN_MOTION_DOT":0.00074605,"MEAN_MOTION_DDOT":0},{"OBJECT_NAME":"STARLINK-37019","OBJECT_ID":"2026-055M","EPOCH":"2026-04-06T06:00:02.000160","MEAN_MOTION":15.80836612,"ECCENTRICITY":0.00014708,"INCLINATION":53.1583,"RA_OF_ASC_NODE":199.077,"ARG_OF_PERICENTER":103.2995,"MEAN_ANOMALY":193.0558,"EPHEMERIS_TYPE":0,"CLASSIFICATION_TYPE":"U","NORAD_CAT_ID":68273,"ELEMENT_SET_NO":999,"REV_AT_EPOCH":406,"BSTAR":0.00048479792,"MEAN_MOTION_DOT":0.00095892,"MEAN_MOTION_DDOT":0},{"OBJECT_NAME":"STARLINK-37129","OBJECT_ID":"2026-055N","EPOCH":"2026-04-06T06:00:02.000160","MEAN_MOTION":15.80824012,"ECCENTRICITY":0.00013877,"INCLINATION":53.1582,"RA_OF_ASC_NODE":199.0686,"ARG_OF_PERICENTER":72.4541,"MEAN_ANOMALY":228.1724,"EPHEMERIS_TYPE":0,"CLASSIFICATION_TYPE":"U","NORAD_CAT_ID":68274,"ELEMENT_SET_NO":999,"REV_AT_EPOCH":406,"BSTAR":0.00061813521,"MEAN_MOTION_DOT":0.00122771,"MEAN_MOTION_DDOT":0},{"OBJECT_NAME":"STARLINK-37123","OBJECT_ID":"2026-055P","EPOCH":"2026-04-06T06:00:02.000160","MEAN_MOTION":15.80785456,"ECCENTRICITY":0.00016335,"INCLINATION":53.1581,"RA_OF_ASC_NODE":199.0599,"ARG_OF_PERICENTER":104.1644,"MEAN_ANOMALY":200.7468,"EPHEMERIS_TYPE":0,"CLASSIFICATION_TYPE":"U","NORAD_CAT_ID":68275,"ELEMENT_SET_NO":999,"REV_AT_EPOCH":406,"BSTAR":0.00092605162,"MEAN_MOTION_DOT":0.00185299,"MEAN_MOTION_DDOT":0},{"OBJECT_NAME":"STARLINK-37125","OBJECT_ID":"2026-055Q","EPOCH":"2026-04-06T06:00:02.000160","MEAN_MOTION":15.80839092,"ECCENTRICITY":0.00011971,"INCLINATION":53.1581,"RA_OF_ASC_NODE":199.0509,"ARG_OF_PERICENTER":117.378,"MEAN_ANOMALY":191.7867,"EPHEMERIS_TYPE":0,"CLASSIFICATION_TYPE":"U","NORAD_CAT_ID":68276,"ELEMENT_SET_NO":999,"REV_AT_EPOCH":406,"BSTAR":0.00048690152,"MEAN_MOTION_DOT":0.00096326,"MEAN_MOTION_DDOT":0}]
